[{"OBJECT_NAME":"STARLINK-35021","OBJECT_ID":"2025-184K","EPOCH":"2026-03-09T16:21:06.526656","MEAN_MOTION":15.05632974,"ECCENTRICITY":0.00010913,"INCLINATION":97.6031,"RA_OF_ASC_NODE":122.7142,"ARG_OF_PERICENTER":123.6007,"MEAN_ANOMALY":236.5324,"EPHEMERIS_TYPE":0,"CLASSIFICATION_TYPE":"U","NORAD_CAT_ID":65282,"ELEMENT_SET_NO":999,"REV_AT_EPOCH":3125,"BSTAR":0.00049768194,"MEAN_MOTION_DOT":7.124e-5,"MEAN_MOTION_DDOT":0},{"OBJECT_NAME":"RAPIDEYE 3","OBJECT_ID":"2008-040D","EPOCH":"2026-03-09T19:34:21.496512","MEAN_MOTION":15.06489596,"ECCENTRICITY":0.00114187,"INCLINATION":97.3959,"RA_OF_ASC_NODE":102.9968,"ARG_OF_PERICENTER":27.1842,"MEAN_ANOMALY":332.9981,"EPHEMERIS_TYPE":0,"CLASSIFICATION_TYPE":"U","NORAD_CAT_ID":33315,"ELEMENT_SET_NO":999,"REV_AT_EPOCH":95131,"BSTAR":0.00019030529,"MEAN_MOTION_DOT":2.754e-5,"MEAN_MOTION_DDOT":0}]
